{"type": "FeatureCollection", "features": [ {"type": "Feature", "properties": {"norad_id": 34409, "name": "COSMOS 2251 DEB", "group": "cosmos-2251-debris", "lat": 46.827247754740604, "lon": 84.02400023389232, "alt_km": 737.0394893333432, "timestamp": "2025-12-25T22:42:17.407369+00:00", "meta": {"OBJECT_NAME": "COSMOS 2251 DEB", "OBJECT_ID": "1993-036RA", "EPOCH": "2025-12-25T13:02:36.481056", "MEAN_MOTION": 14.5805798, "ECCENTRICITY": 0.0080423, "INCLINATION": 74.0637, "RA_OF_ASC_NODE": 282.5201, "ARG_OF_PERICENTER": 353.529, "MEAN_ANOMALY": 184.2935, "EPHEMERIS_TYPE": 0, "CLASSIFICATION_TYPE": "U", "NORAD_CAT_ID": 34409, "ELEMENT_SET_NO": 999, "REV_AT_EPOCH": 89379, "BSTAR": 0.00026547, "MEAN_MOTION_DOT": 1.245e-05, "MEAN_MOTION_DDOT": 0}, "tle": {"line1": "1 34409U 93036RA  25359.54347779  .00001245  00000+0  26547-3 0  9999", "line2": "2 34409  74.0637 282.5201 0080423 353.5290 184.2935 14.58057980893798"}}, "geometry": {"type": "Point", "coordinates": [84.02400023389232, 46.827247754740604]}}, {"type": "Feature", "properties": {"norad_id": 34410, "name": "COSMOS 2251 DEB", "group": "cosmos-2251-debris", "lat": -28.579610803789688, "lon": 62.724691802581084, "alt_km": 521.6670692048356, "timestamp": "2025-12-25T22:42:17.407379+00:00", "meta": {"OBJECT_NAME": "COSMOS 2251 DEB", "OBJECT_ID": "1993-036RB", "EPOCH": "2025-12-25T15:36:15.144192", "MEAN_MOTION": 15.20112263, "ECCENTRICITY": 0.0021152, "INCLINATION": 73.7358, "RA_OF_ASC_NODE": 234.2049, "ARG_OF_PERICENTER": 73.037, "MEAN_ANOMALY": 318.1895, "EPHEMERIS_TYPE": 0, "CLASSIFICATION_TYPE": "U", "NORAD_CAT_ID": 34410, "ELEMENT_SET_NO": 999, "REV_AT_EPOCH": 89970, "BSTAR": 0.0022273, "MEAN_MOTION_DOT": 0.00048718, "MEAN_MOTION_DDOT": 0}, "tle": {"line1": "1 34410U 93036RB  25359.65017528  .00048718  00000+0  22273-2 0  9996", "line2": "2 34410  73.7358 234.2049 0021152  73.0370 318.1895 15.20112263899703"}}, "geometry": {"type": "Point", "coordinates": [62.724691802581084, -28.579610803789688]}}, {"type": "Feature", "properties": {"norad_id": 34412, "name": "COSMOS 2251 DEB", "group": "cosmos-2251-debris", "lat": -6.318164128226512, "lon": 121.59932560706066, "alt_km": 858.0143443530669, "timestamp": "2025-12-25T22:42:17.407389+00:00", "meta": {"OBJECT_NAME": "COSMOS 2251 DEB", "OBJECT_ID": "1993-036RD", "EPOCH": "2025-12-24T06:02:29.414112", "MEAN_MOTION": 14.47276709, "ECCENTRICITY": 0.01876387, "INCLINATION": 73.949, "RA_OF_ASC_NODE": 302.9581, "ARG_OF_PERICENTER": 35.3619, "MEAN_ANOMALY": 325.9814, "EPHEMERIS_TYPE": 0, "CLASSIFICATION_TYPE": "U", "NORAD_CAT_ID": 34412, "ELEMENT_SET_NO": 999, "REV_AT_EPOCH": 87817, "BSTAR": 0.0018649119, "MEAN_MOTION_DOT": 8.49e-05, "MEAN_MOTION_DDOT": 0}, "tle": {"line1": "1 34412U 93036RD  25358.25172933  .00008490  00000+0  18649-2 0  9990", "line2": "2 34412  73.9490 302.9581 0187638  35.3619 325.9814 14.47276709878176"}}, "geometry": {"type": "Point", "coordinates": [121.59932560706066, -6.318164128226512]}}, {"type": "Feature", "properties": {"norad_id": 34413, "name": "COSMOS 2251 DEB", "group": "cosmos-2251-debris", "lat": 1.4441935020610397, "lon": 60.478699251662455, "alt_km": 843.89129687687, "timestamp": "2025-12-25T22:42:17.407399+00:00", "meta": {"OBJECT_NAME": "COSMOS 2251 DEB", "OBJECT_ID": "1993-036RE", "EPOCH": "2025-12-24T22:25:10.363872", "MEAN_MOTION": 14.291856, "ECCENTRICITY": 0.0090951, "INCLINATION": 74.0301, "RA_OF_ASC_NODE": 242.7297, "ARG_OF_PERICENTER": 316.973, "MEAN_ANOMALY": 57.9695, "EPHEMERIS_TYPE": 0, "CLASSIFICATION_TYPE": "U", "NORAD_CAT_ID": 34413, "ELEMENT_SET_NO": 999, "REV_AT_EPOCH": 87305, "BSTAR": 0.0013959, "MEAN_MOTION_DOT": 3.681e-05, "MEAN_MOTION_DDOT": 0}, "tle": {"line1": "1 34413U 93036RE  25358.93414773  .00003681  00000+0  13959-2 0  9993", "line2": "2 34413  74.0301 242.7297 0090951 316.9730  57.9695 14.29185600873058"}}, "geometry": {"type": "Point", "coordinates": [60.478699251662455, 1.4441935020610397]}}, {"type": "Feature", "properties": {"norad_id": 34420, "name": "COSMOS 2251 DEB", "group": "cosmos-2251-debris", "lat": -25.687623513757664, "lon": 70.49942364098017, "alt_km": 725.8887393191771, "timestamp": "2025-12-25T22:42:17.407410+00:00", "meta": {"OBJECT_NAME": "COSMOS 2251 DEB", "OBJECT_ID": "1993-036RM", "EPOCH": "2025-12-25T01:53:27.691872", "MEAN_MOTION": 14.68332611, "ECCENTRICITY": 0.01060549, "INCLINATION": 74.0333, "RA_OF_ASC_NODE": 80.0919, "ARG_OF_PERICENTER": 198.2983, "MEAN_ANOMALY": 231.8315, "EPHEMERIS_TYPE": 0, "CLASSIFICATION_TYPE": "U", "NORAD_CAT_ID": 34420, "ELEMENT_SET_NO": 999, "REV_AT_EPOCH": 89951, "BSTAR": 0.00021975448, "MEAN_MOTION_DOT": 1.346e-05, "MEAN_MOTION_DDOT": 0}, "tle": {"line1": "1 34420U 93036RM  25359.07879273  .00001346  00000+0  21975-3 0  9991", "line2": "2 34420  74.0333  80.0919 0106054 198.2983 231.8315 14.68332611899518"}}, "geometry": {"type": "Point", "coordinates": [70.49942364098017, -25.687623513757664]}}, {"type": "Feature", "properties": {"norad_id": 34425, "name": "COSMOS 2251 DEB", "group": "cosmos-2251-debris", "lat": 49.61676029021775, "lon": -170.4871812962327, "alt_km": 665.7090650286536, "timestamp": "2025-12-25T22:42:17.407420+00:00", "meta": {"OBJECT_NAME": "COSMOS 2251 DEB", "OBJECT_ID": "1993-036RS", "EPOCH": "2025-12-25T12:16:17.383584", "MEAN_MOTION": 14.62194073, "ECCENTRICITY": 0.00241, "INCLINATION": 74.0191, "RA_OF_ASC_NODE": 30.0353, "ARG_OF_PERICENTER": 152.8146, "MEAN_ANOMALY": 207.4288, "EPHEMERIS_TYPE": 0, "CLASSIFICATION_TYPE": "U", "NORAD_CAT_ID": 34425, "ELEMENT_SET_NO": 999, "REV_AT_EPOCH": 88927, "BSTAR": 0.0005196, "MEAN_MOTION_DOT": 2.598e-05, "MEAN_MOTION_DDOT": 0}, "tle": {"line1": "1 34425U 93036RS  25359.51131231  .00002598  00000+0  51960-3 0  9997", "line2": "2 34425  74.0191  30.0353 0024100 152.8146 207.4288 14.62194073889272"}}, "geometry": {"type": "Point", "coordinates": [-170.4871812962327, 49.61676029021775]}}, {"type": "Feature", "properties": {"norad_id": 34429, "name": "COSMOS 2251 DEB", "group": "cosmos-2251-debris", "lat": 48.92209392295746, "lon": -60.09394694034147, "alt_km": 426.74377579908105, "timestamp": "2025-12-25T22:42:17.407430+00:00", "meta": {"OBJECT_NAME": "COSMOS 2251 DEB", "OBJECT_ID": "1993-036RW", "EPOCH": "2025-12-25T11:32:59.860896", "MEAN_MOTION": 15.47315946, "ECCENTRICITY": 0.0013689, "INCLINATION": 73.968, "RA_OF_ASC_NODE": 140.1875, "ARG_OF_PERICENTER": 343.8213, "MEAN_ANOMALY": 76.2565, "EPHEMERIS_TYPE": 0, "CLASSIFICATION_TYPE": "U", "NORAD_CAT_ID": 34429, "ELEMENT_SET_NO": 999, "REV_AT_EPOCH": 89645, "BSTAR": 0.0057613, "MEAN_MOTION_DOT": 0.00306939, "MEAN_MOTION_DDOT": 0}, "tle": {"line1": "1 34429U 93036RW  25359.48124839  .00306939  00000+0  57613-2 0  9999", "line2": "2 34429  73.9680 140.1875 0013689 343.8213  76.2565 15.47315946896452"}}, "geometry": {"type": "Point", "coordinates": [-60.09394694034147, 48.92209392295746]}}, {"type": "Feature", "properties": {"norad_id": 34430, "name": "COSMOS 2251 DEB", "group": "cosmos-2251-debris", "lat": -71.65779944013782, "lon": -140.60296741136878, "alt_km": 748.8971149542003, "timestamp": "2025-12-25T22:42:17.407440+00:00", "meta": {"OBJECT_NAME": "COSMOS 2251 DEB", "OBJECT_ID": "1993-036RX", "EPOCH": "2025-12-25T11:24:07.166016", "MEAN_MOTION": 14.39669493, "ECCENTRICITY": 0.0060918, "INCLINATION": 74.0519, "RA_OF_ASC_NODE": 279.8645, "ARG_OF_PERICENTER": 346.5668, "MEAN_ANOMALY": 13.3861, "EPHEMERIS_TYPE": 0, "CLASSIFICATION_TYPE": "U", "NORAD_CAT_ID": 34430, "ELEMENT_SET_NO": 999, "REV_AT_EPOCH": 88138, "BSTAR": 0.000454, "MEAN_MOTION_DOT": 1.425e-05, "MEAN_MOTION_DDOT": 0}, "tle": {"line1": "1 34430U 93036RX  25359.47508294  .00001425  00000+0  45400-3 0  9995", "line2": "2 34430  74.0519 279.8645 0060918 346.5668  13.3861 14.39669493881389"}}, "geometry": {"type": "Point", "coordinates": [-140.60296741136878, -71.65779944013782]}}, {"type": "Feature", "properties": {"norad_id": 34431, "name": "COSMOS 2251 DEB", "group": "cosmos-2251-debris", "lat": 24.07668442541205, "lon": 158.6245239168003, "alt_km": 809.6497502926823, "timestamp": "2025-12-25T22:42:17.407450+00:00", "meta": {"OBJECT_NAME": "COSMOS 2251 DEB", "OBJECT_ID": "1993-036RY", "EPOCH": "2025-12-25T10:49:27.119712", "MEAN_MOTION": 14.28817387, "ECCENTRICITY": 0.0067656, "INCLINATION": 74.074, "RA_OF_ASC_NODE": 152.1903, "ARG_OF_PERICENTER": 134.4994, "MEAN_ANOMALY": 226.1713, "EPHEMERIS_TYPE": 0, "CLASSIFICATION_TYPE": "U", "NORAD_CAT_ID": 34431, "ELEMENT_SET_NO": 999, "REV_AT_EPOCH": 87324, "BSTAR": 0.00071448, "MEAN_MOTION_DOT": 1.821e-05, "MEAN_MOTION_DDOT": 0}, "tle": {"line1": "1 34431U 93036RY  25359.45100833  .00001821  00000+0  71448-3 0  9992", "line2": "2 34431  74.0740 152.1903 0067656 134.4994 226.1713 14.28817387873249"}}, "geometry": {"type": "Point", "coordinates": [158.6245239168003, 24.07668442541205]}}, {"type": "Feature", "properties": {"norad_id": 34432, "name": "COSMOS 2251 DEB", "group": "cosmos-2251-debris", "lat": -61.39984731047565, "lon": -68.78812105405659, "alt_km": 879.7007759283224, "timestamp": "2025-12-25T22:42:17.407460+00:00", "meta": {"OBJECT_NAME": "COSMOS 2251 DEB", "OBJECT_ID": "1993-036RZ", "EPOCH": "2025-12-25T15:15:44.199072", "MEAN_MOTION": 14.02958931, "ECCENTRICITY": 0.0181292, "INCLINATION": 73.8285, "RA_OF_ASC_NODE": 79.6035, "ARG_OF_PERICENTER": 160.2499, "MEAN_ANOMALY": 318.0811, "EPHEMERIS_TYPE": 0, "CLASSIFICATION_TYPE": "U", "NORAD_CAT_ID": 34432, "ELEMENT_SET_NO": 999, "REV_AT_EPOCH": 85865, "BSTAR": 0.0011474, "MEAN_MOTION_DOT": 2.034e-05, "MEAN_MOTION_DDOT": 0}, "tle": {"line1": "1 34432U 93036RZ  25359.63592823  .00002034  00000+0  11474-2 0  9996", "line2": "2 34432  73.8285  79.6035 0181292 160.2499 318.0811 14.02958931858651"}}, "geometry": {"type": "Point", "coordinates": [-68.78812105405659, -61.39984731047565]}}]}